start=new Date('2022-04-14T00:00:00.000Z').valueOf();
sats=[{"LAUNCH_DATE":"2020-09-03","SITE":"AFETR","EPOCH":"2022-04-13T20:34:37.858368","CLASSIFICATION_TYPE":"U","MEAN_MOTION_DDOT":"0.0000000000000","INCLINATION":"53.0543","REF_FRAME":"TEME","ECCENTRICITY":"0.00018570","DECAY_DATE":null,"EPHEMERIS_TYPE":"0","CENTER_NAME":"EARTH","TLE_LINE2":"2 46328  53.0543 277.4323 0001857  46.2939 313.8203 15.06405890 89686","BSTAR":"0.00057955000000","FILE":"3400454","ARG_OF_PERICENTER":"46.2939","OBJECT_ID":"2020-062D","PERIAPSIS":"545.909","SEMIMAJOR_AXIS":"6925.331","PERIOD":"95.592","ELEMENT_SET_NO":"999","MEAN_ELEMENT_THEORY":"SGP4","MEAN_MOTION":"15.06405890","MEAN_MOTION_DOT":"0.00008363","OBJECT_NAME":"STARLINK-1686","MEAN_ANOMALY":"313.8203","TLE_LINE1":"1 46328U 20062D   22103.85738262  .00008363  00000-0  57955-3 0  9996","COUNTRY_CODE":"US","REV_AT_EPOCH":"8968","RCS_SIZE":"LARGE","GP_ID":"201172323","APOAPSIS":"548.482","OBJECT_TYPE":"PAYLOAD","NORAD_CAT_ID":"46328","TIME_SYSTEM":"UTC","RA_OF_ASC_NODE":"277.4323"},{"COUNTRY_CODE":"US","REV_AT_EPOCH":"8966","RCS_SIZE":"LARGE","GP_ID":"201173575","APOAPSIS":"548.357","OBJECT_TYPE":"PAYLOAD","NORAD_CAT_ID":"46329","TIME_SYSTEM":"UTC","RA_OF_ASC_NODE":"277.8719","FILE":"3400454","ARG_OF_PERICENTER":"51.6963","OBJECT_ID":"2020-062E","PERIAPSIS":"546.090","SEMIMAJOR_AXIS":"6925.358","PERIOD":"95.592","ELEMENT_SET_NO":"999","MEAN_ELEMENT_THEORY":"SGP4","MEAN_MOTION":"15.06396838","MEAN_MOTION_DOT":"0.00000480","OBJECT_NAME":"STARLINK-1695","MEAN_ANOMALY":"308.4173","TLE_LINE1":"1 46329U 20062E   22103.75788009  .00000480  00000-0  51150-4 0  9994","REF_FRAME":"TEME","ECCENTRICITY":"0.00016370","DECAY_DATE":null,"EPHEMERIS_TYPE":"0","CENTER_NAME":"EARTH","BSTAR":"0.00005115000000","TLE_LINE2":"2 46329  53.0556 277.8719 0001637  51.6963 308.4173 15.06396838 89662","LAUNCH_DATE":"2020-09-03","SITE":"AFETR","EPOCH":"2022-04-13T18:11:20.839776","CLASSIFICATION_TYPE":"U","MEAN_MOTION_DDOT":"0.0000000000000","INCLINATION":"53.0556"},{"INCLINATION":"53.0544","EPOCH":"2022-04-13T21:06:29.097216","LAUNCH_DATE":"2020-09-03","SITE":"AFETR","MEAN_MOTION_DDOT":"0.0000000000000","CLASSIFICATION_TYPE":"U","ECCENTRICITY":"0.00016370","DECAY_DATE":null,"REF_FRAME":"TEME","BSTAR":"0.00003238900000","TLE_LINE2":"2 46330  53.0544 277.3196 0001637  63.3162 296.7994 15.06392011 89698","EPHEMERIS_TYPE":"0","CENTER_NAME":"EARTH","MEAN_MOTION_DOT":"0.00000201","MEAN_ANOMALY":"296.7994","OBJECT_NAME":"STARLINK-1710","TLE_LINE1":"1 46330U 20062F   22103.87950344  .00000201  00000-0  32389-4 0  9996","ARG_OF_PERICENTER":"63.3162","OBJECT_ID":"2020-062F","PERIOD":"95.593","PERIAPSIS":"546.104","SEMIMAJOR_AXIS":"6925.373","FILE":"3400454","MEAN_ELEMENT_THEORY":"SGP4","MEAN_MOTION":"15.06392011","ELEMENT_SET_NO":"999","APOAPSIS":"548.372","RCS_SIZE":"LARGE","GP_ID":"201173826","RA_OF_ASC_NODE":"277.3196","TIME_SYSTEM":"UTC","OBJECT_TYPE":"PAYLOAD","NORAD_CAT_ID":"46330","COUNTRY_CODE":"US","REV_AT_EPOCH":"8969"},{"TLE_LINE2":"2 46331  53.0526 297.4723 0001462  72.4326 287.6823 15.06388991 89408","BSTAR":"0.00060688000000","EPHEMERIS_TYPE":"0","CENTER_NAME":"EARTH","DECAY_DATE":null,"ECCENTRICITY":"0.00014620","REF_FRAME":"TEME","INCLINATION":"53.0526","MEAN_MOTION_DDOT":"0.0000000000000","CLASSIFICATION_TYPE":"U","EPOCH":"2022-04-13T20:21:24.316704","LAUNCH_DATE":"2020-09-03","SITE":"AFETR","RA_OF_ASC_NODE":"297.4723","TIME_SYSTEM":"UTC","OBJECT_TYPE":"PAYLOAD","NORAD_CAT_ID":"46331","APOAPSIS":"548.260","RCS_SIZE":"LARGE","GP_ID":"201172574","REV_AT_EPOCH":"8940","COUNTRY_CODE":"US","TLE_LINE1":"1 46331U 20062G   22103.84819811  .00008767  00000-0  60688-3 0  9994","MEAN_MOTION_DOT":"0.00008767","OBJECT_NAME":"STARLINK-1719","MEAN_ANOMALY":"287.6823","MEAN_ELEMENT_THEORY":"SGP4","MEAN_MOTION":"15.06388991","ELEMENT_SET_NO":"999","ARG_OF_PERICENTER":"72.4326","OBJECT_ID":"2020-062G","PERIAPSIS":"546.235","PERIOD":"95.593","SEMIMAJOR_AXIS":"6925.382","FILE":"3400454"},{"GP_ID":"201172824","RCS_SIZE":"LARGE","APOAPSIS":"548.259","NORAD_CAT_ID":"46332","OBJECT_TYPE":"PAYLOAD","TIME_SYSTEM":"UTC","RA_OF_ASC_NODE":"297.7229","COUNTRY_CODE":"US","REV_AT_EPOCH":"8939","MEAN_ANOMALY":"297.2357","OBJECT_NAME":"STARLINK-1721","MEAN_MOTION_DOT":"0.00001751","TLE_LINE1":"1 46332U 20062H   22103.79290228  .00001751  00000-0  13643-3 0  9999","FILE":"3400454","PERIAPSIS":"546.217","PERIOD":"95.593","SEMIMAJOR_AXIS":"6925.373","ARG_OF_PERICENTER":"62.8782","OBJECT_ID":"2020-062H","ELEMENT_SET_NO":"999","MEAN_MOTION":"15.06391990","MEAN_ELEMENT_THEORY":"SGP4","REF_FRAME":"TEME","DECAY_DATE":null,"ECCENTRICITY":"0.00014740","CENTER_NAME":"EARTH","EPHEMERIS_TYPE":"0","BSTAR":"0.00013643000000","TLE_LINE2":"2 46332  53.0561 297.7229 0001474  62.8782 297.2357 15.06391990 89394","INCLINATION":"53.0561","SITE":"AFETR","LAUNCH_DATE":"2020-09-03","EPOCH":"2022-04-13T19:01:46.756992","CLASSIFICATION_TYPE":"U","MEAN_MOTION_DDOT":"0.0000000000000"},{"TLE_LINE1":"1 46333U 20062J   22103.80763091  .00004834  00000-0  34311-3 0  9995","MEAN_MOTION_DOT":"0.00004834","MEAN_ANOMALY":"293.4140","OBJECT_NAME":"STARLINK-1723","ELEMENT_SET_NO":"999","MEAN_ELEMENT_THEORY":"SGP4","MEAN_MOTION":"15.06408662","FILE":"3400454","ARG_OF_PERICENTER":"66.7014","OBJECT_ID":"2020-062J","PERIAPSIS":"546.098","PERIOD":"95.592","SEMIMAJOR_AXIS":"6925.322","OBJECT_TYPE":"PAYLOAD","NORAD_CAT_ID":"46333","RA_OF_ASC_NODE":"297.6606","TIME_SYSTEM":"UTC","RCS_SIZE":"LARGE","GP_ID":"201173075","APOAPSIS":"548.276","REV_AT_EPOCH":"8939","COUNTRY_CODE":"US","INCLINATION":"53.0541","CLASSIFICATION_TYPE":"U","MEAN_MOTION_DDOT":"0.0000000000000","LAUNCH_DATE":"2020-09-03","SITE":"AFETR","EPOCH":"2022-04-13T19:22:59.310624","EPHEMERIS_TYPE":"0","CENTER_NAME":"EARTH","BSTAR":"0.00034311000000","TLE_LINE2":"2 46333  53.0541 297.6606 0001572  66.7014 293.4140 15.06408662 89394","REF_FRAME":"TEME","DECAY_DATE":null,"ECCENTRICITY":"0.00015720"},{"TLE_LINE1":"1 46334U 20062K   22103.84907687  .00003669  00000-0  26507-3 0  9994","OBJECT_NAME":"STARLINK-1725","MEAN_ANOMALY":"303.8642","MEAN_MOTION_DOT":"0.00003669","MEAN_MOTION":"15.06402873","MEAN_ELEMENT_THEORY":"SGP4","ELEMENT_SET_NO":"999","PERIAPSIS":"545.996","SEMIMAJOR_AXIS":"6925.340","PERIOD":"95.592","ARG_OF_PERICENTER":"56.2513","OBJECT_ID":"2020-062K","FILE":"3400127","RA_OF_ASC_NODE":"277.4569","TIME_SYSTEM":"UTC","NORAD_CAT_ID":"46334","OBJECT_TYPE":"PAYLOAD","APOAPSIS":"548.414","GP_ID":"201147712","RCS_SIZE":"LARGE","REV_AT_EPOCH":"8986","COUNTRY_CODE":"US","INCLINATION":"53.0539","MEAN_MOTION_DDOT":"0.0000000000000","CLASSIFICATION_TYPE":"U","EPOCH":"2022-04-13T20:22:40.241568","SITE":"AFETR","LAUNCH_DATE":"2020-09-03","BSTAR":"0.00026507000000","TLE_LINE2":"2 46334  53.0539 277.4569 0001746  56.2513 303.8642 15.06402873 89860","CENTER_NAME":"EARTH","EPHEMERIS_TYPE":"0","DECAY_DATE":null,"ECCENTRICITY":"0.00017460","REF_FRAME":"TEME"},{"REV_AT_EPOCH":"8940","COUNTRY_CODE":"US","RA_OF_ASC_NODE":"297.5267","TIME_SYSTEM":"UTC","NORAD_CAT_ID":"46335","OBJECT_TYPE":"PAYLOAD","APOAPSIS":"548.403","GP_ID":"201172074","RCS_SIZE":"LARGE","MEAN_MOTION":"15.06398588","MEAN_ELEMENT_THEORY":"SGP4","ELEMENT_SET_NO":"999","PERIAPSIS":"546.033","SEMIMAJOR_AXIS":"6925.353","PERIOD":"95.592","ARG_OF_PERICENTER":"61.9841","OBJECT_ID":"2020-062L","FILE":"3400454","TLE_LINE1":"1 46335U 20062L   22103.83712929  .00010086  00000-0  69509-3 0  9997","MEAN_ANOMALY":"298.1321","OBJECT_NAME":"STARLINK-1727","MEAN_MOTION_DOT":"0.00010086","TLE_LINE2":"2 46335  53.0552 297.5267 0001711  61.9841 298.1321 15.06398588 89400","BSTAR":"0.00069509000000","CENTER_NAME":"EARTH","EPHEMERIS_TYPE":"0","DECAY_DATE":null,"ECCENTRICITY":"0.00017110","REF_FRAME":"TEME","MEAN_MOTION_DDOT":"0.0000000000000","CLASSIFICATION_TYPE":"U","EPOCH":"2022-04-13T20:05:27.970656","SITE":"AFETR","LAUNCH_DATE":"2020-09-03","INCLINATION":"53.0552"},{"LAUNCH_DATE":"2020-09-03","SITE":"AFETR","EPOCH":"2022-04-13T18:16:39.781920","CLASSIFICATION_TYPE":"U","MEAN_MOTION_DDOT":"0.0000000000000","INCLINATION":"53.0523","REF_FRAME":"TEME","DECAY_DATE":null,"ECCENTRICITY":"0.00015220","EPHEMERIS_TYPE":"0","CENTER_NAME":"EARTH","TLE_LINE2":"2 46336  53.0523 277.8667 0001522  55.2328 304.8804 15.06398231 89664","BSTAR":"0.00050340000000","FILE":"3400454","ARG_OF_PERICENTER":"55.2328","OBJECT_ID":"2020-062M","PERIOD":"95.592","PERIAPSIS":"546.165","SEMIMAJOR_AXIS":"6925.354","ELEMENT_SET_NO":"999","MEAN_ELEMENT_THEORY":"SGP4","MEAN_MOTION":"15.06398231","MEAN_MOTION_DOT":"0.00007224","OBJECT_NAME":"STARLINK-1738","MEAN_ANOMALY":"304.8804","TLE_LINE1":"1 46336U 20062M   22103.76157155  .00007224  00000-0  50340-3 0  9997","COUNTRY_CODE":"US","REV_AT_EPOCH":"8966","RCS_SIZE":"LARGE","GP_ID":"201172324","APOAPSIS":"548.273","OBJECT_TYPE":"PAYLOAD","NORAD_CAT_ID":"46336","RA_OF_ASC_NODE":"277.8667","TIME_SYSTEM":"UTC"},{"COUNTRY_CODE":"US","REV_AT_EPOCH":"8968","APOAPSIS":"548.464","GP_ID":"201173576","RCS_SIZE":"LARGE","RA_OF_ASC_NODE":"277.4917","TIME_SYSTEM":"UTC","NORAD_CAT_ID":"46337","OBJECT_TYPE":"PAYLOAD","PERIOD":"95.592","PERIAPSIS":"545.910","SEMIMAJOR_AXIS":"6925.322","OBJECT_ID":"2020-062N","ARG_OF_PERICENTER":"55.6974","FILE":"3400454","MEAN_MOTION":"15.06408778","MEAN_ELEMENT_THEORY":"SGP4","ELEMENT_SET_NO":"999","OBJECT_NAME":"STARLINK-1750","MEAN_ANOMALY":"304.4190","MEAN_MOTION_DOT":"0.00005883","TLE_LINE1":"1 46337U 20062N   22103.84263889  .00005883  00000-0  41342-3 0  9990","DECAY_DATE":null,"ECCENTRICITY":"0.00018440","REF_FRAME":"TEME","TLE_LINE2":"2 46337  53.0551 277.4917 0001844  55.6974 304.4190 15.06408778 89682","BSTAR":"0.00041342000000","CENTER_NAME":"EARTH","EPHEMERIS_TYPE":"0","EPOCH":"2022-04-13T20:13:24.000096","SITE":"AFETR","LAUNCH_DATE":"2020-09-03","MEAN_MOTION_DDOT":"0.0000000000000","CLASSIFICATION_TYPE":"U","INCLINATION":"53.0551"}];
